{"type": "FeatureCollection", "features": [{"type": "Feature", "properties": {"zone": "core"}, "geometry": {"type": "Polygon", "coordinates": [[[38.9753, 45.062478], [38.977796, 45.062421], [38.980281, 45.062248], [38.982744, 45.06196], [38.985176, 45.061559], [38.987566, 45.061047], [38.989903, 45.060425], [38.992177, 45.059696], [38.99438, 45.058864], [38.9965, 45.057932], [38.99853, 45.056903], [39.00046, 45.055783], [39.002282, 45.054577], [39.003989, 45.053288], [39.005574, 45.051923], [39.007028, 45.050488], [39.008347, 45.048989], [39.009524, 45.047432], [39.010554, 45.045824], [39.011434, 45.044172], [39.012159, 45.042483], [39.012726, 45.040763], [39.013133, 45.039021], [39.013377, 45.037264], [39.013459, 45.0355], [39.013377, 45.033736], [39.013133, 45.031979], [39.012726, 45.030237], [39.012159, 45.028517], [39.011434, 45.026828], [39.010554, 45.025176], [39.009524, 45.023568], [39.008347, 45.022011], [39.007028, 45.020512], [39.005574, 45.019077], [39.003989, 45.017712], [39.002282, 45.016423], [39.00046, 45.015217], [38.99853, 45.014097], [38.9965, 45.013068], [38.99438, 45.012136], [38.992177, 45.011304], [38.989903, 45.010575], [38.987566, 45.009953], [38.985176, 45.009441], [38.982744, 45.00904], [38.980281, 45.008752], [38.977796, 45.008579], [38.9753, 45.008522], [38.972804, 45.008579], [38.970319, 45.008752], [38.967856, 45.00904], [38.965424, 45.009441], [38.963034, 45.009953], [38.960697, 45.010575], [38.958423, 45.011304], [38.95622, 45.012136], [38.9541, 45.013068], [38.95207, 45.014097], [38.95014, 45.015217], [38.948318, 45.016423], [38.946611, 45.017712], [38.945026, 45.019077], [38.943572, 45.020512], [38.942253, 45.022011], [38.941076, 45.023568], [38.940046, 45.025176], [38.939166, 45.026828], [38.938441, 45.028517], [38.937874, 45.030237], [38.937467, 45.031979], [38.937223, 45.033736], [38.937141, 45.0355], [38.937223, 45.037264], [38.937467, 45.039021], [38.937874, 45.040763], [38.938441, 45.042483], [38.939166, 45.044172], [38.940046, 45.045824], [38.941076, 45.047432], [38.942253, 45.048989], [38.943572, 45.050488], [38.945026, 45.051923], [38.946611, 45.053288], [38.948318, 45.054577], [38.95014, 45.055783], [38.95207, 45.056903], [38.9541, 45.057932], [38.95622, 45.058864], [38.958423, 45.059696], [38.960697, 45.060425], [38.963034, 45.061047], [38.965424, 45.061559], [38.967856, 45.06196], [38.970319, 45.062248], [38.972804, 45.062421], [38.9753, 45.062478]]]}}, {"type": "Feature", "properties": {"zone": "city"}, "geometry": {"type": "Polygon", "coordinates": [[[38.9753, 45.107442], [38.981955, 45.107288], [38.988582, 45.106827], [38.995152, 45.10606], [39.001637, 45.104991], [39.008009, 45.103624], [39.014241, 45.101966], [39.020306, 45.100023], [39.026179, 45.097804], [39.031833, 45.095318], [39.037246, 45.092576], [39.042393, 45.089589], [39.047253, 45.086371], [39.051805, 45.082935], [39.05603, 45.079296], [39.059908, 45.075469], [39.063424, 45.071471], [39.066563, 45.067319], [39.069312, 45.063031], [39.071657, 45.058625], [39.07359, 45.05412], [39.075102, 45.049535], [39.076187, 45.04489], [39.076839, 45.040205], [39.077057, 45.0355], [39.076839, 45.030795], [39.076187, 45.02611], [39.075102, 45.021465], [39.07359, 45.01688], [39.071657, 45.012375], [39.069312, 45.007969], [39.066563, 45.003681], [39.063424, 44.999529], [39.059908, 44.995531], [39.05603, 44.991704], [39.051805, 44.988065], [39.047253, 44.984629], [39.042393, 44.981411], [39.037246, 44.978424], [39.031833, 44.975682], [39.026179, 44.973196], [39.020306, 44.970977], [39.014241, 44.969034], [39.008009, 44.967376], [39.001637, 44.966009], [38.995152, 44.96494], [38.988582, 44.964173], [38.981955, 44.963712], [38.9753, 44.963558], [38.968645, 44.963712], [38.962018, 44.964173], [38.955448, 44.96494], [38.948963, 44.966009], [38.942591, 44.967376], [38.936359, 44.969034], [38.930294, 44.970977], [38.924421, 44.973196], [38.918767, 44.975682], [38.913354, 44.978424], [38.908207, 44.981411], [38.903347, 44.984629], [38.898795, 44.988065], [38.89457, 44.991704], [38.890692, 44.995531], [38.887176, 44.999529], [38.884037, 45.003681], [38.881288, 45.007969], [38.878943, 45.012375], [38.87701, 45.01688], [38.875498, 45.021465], [38.874413, 45.02611], [38.873761, 45.030795], [38.873543, 45.0355], [38.873761, 45.040205], [38.874413, 45.04489], [38.875498, 45.049535], [38.87701, 45.05412], [38.878943, 45.058625], [38.881288, 45.063031], [38.884037, 45.067319], [38.887176, 45.071471], [38.890692, 45.075469], [38.89457, 45.079296], [38.898795, 45.082935], [38.903347, 45.086371], [38.908207, 45.089589], [38.913354, 45.092576], [38.918767, 45.095318], [38.924421, 45.097804], [38.930294, 45.100023], [38.936359, 45.101966], [38.942591, 45.103624], [38.948963, 45.104991], [38.955448, 45.10606], [38.962018, 45.106827], [38.968645, 45.107288], [38.9753, 45.107442]], [[38.9753, 45.062478], [38.972804, 45.062421], [38.970319, 45.062248], [38.967856, 45.06196], [38.965424, 45.061559], [38.963034, 45.061047], [38.960697, 45.060425], [38.958423, 45.059696], [38.95622, 45.058864], [38.9541, 45.057932], [38.95207, 45.056903], [38.95014, 45.055783], [38.948318, 45.054577], [38.946611, 45.053288], [38.945026, 45.051923], [38.943572, 45.050488], [38.942253, 45.048989], [38.941076, 45.047432], [38.940046, 45.045824], [38.939166, 45.044172], [38.938441, 45.042483], [38.937874, 45.040763], [38.937467, 45.039021], [38.937223, 45.037264], [38.937141, 45.0355], [38.937223, 45.033736], [38.937467, 45.031979], [38.937874, 45.030237], [38.938441, 45.028517], [38.939166, 45.026828], [38.940046, 45.025176], [38.941076, 45.023568], [38.942253, 45.022011], [38.943572, 45.020512], [38.945026, 45.019077], [38.946611, 45.017712], [38.948318, 45.016423], [38.95014, 45.015217], [38.95207, 45.014097], [38.9541, 45.013068], [38.95622, 45.012136], [38.958423, 45.011304], [38.960697, 45.010575], [38.963034, 45.009953], [38.965424, 45.009441], [38.967856, 45.00904], [38.970319, 45.008752], [38.972804, 45.008579], [38.9753, 45.008522], [38.977796, 45.008579], [38.980281, 45.008752], [38.982744, 45.00904], [38.985176, 45.009441], [38.987566, 45.009953], [38.989903, 45.010575], [38.992177, 45.011304], [38.99438, 45.012136], [38.9965, 45.013068], [38.99853, 45.014097], [39.00046, 45.015217], [39.002282, 45.016423], [39.003989, 45.017712], [39.005574, 45.019077], [39.007028, 45.020512], [39.008347, 45.022011], [39.009524, 45.023568], [39.010554, 45.025176], [39.011434, 45.026828], [39.012159, 45.028517], [39.012726, 45.030237], [39.013133, 45.031979], [39.013377, 45.033736], [39.013459, 45.0355], [39.013377, 45.037264], [39.013133, 45.039021], [39.012726, 45.040763], [39.012159, 45.042483], [39.011434, 45.044172], [39.010554, 45.045824], [39.009524, 45.047432], [39.008347, 45.048989], [39.007028, 45.050488], [39.005574, 45.051923], [39.003989, 45.053288], [39.002282, 45.054577], [39.00046, 45.055783], [38.99853, 45.056903], [38.9965, 45.057932], [38.99438, 45.058864], [38.992177, 45.059696], [38.989903, 45.060425], [38.987566, 45.061047], [38.985176, 45.061559], [38.982744, 45.06196], [38.980281, 45.062248], [38.977796, 45.062421], [38.9753, 45.062478]]]}}]}