{"type": "FeatureCollection", "features": [{"type": "Feature", "properties": {"zone": "z1"}, "geometry": {"type": "Polygon", "coordinates": [[[38.9753, 45.053486], [38.976965, 45.053447], [38.978622, 45.053332], [38.980265, 45.05314], [38.981887, 45.052873], [38.983481, 45.052531], [38.98504, 45.052117], [38.986557, 45.051631], [38.988026, 45.051076], [38.98944, 45.050454], [38.990794, 45.049769], [38.992081, 45.049022], [38.993297, 45.048218], [38.994435, 45.047359], [38.995492, 45.046449], [38.996462, 45.045492], [38.997341, 45.044493], [38.998127, 45.043455], [38.998814, 45.042383], [38.999401, 45.041281], [38.999884, 45.040155], [39.000262, 45.039009], [39.000534, 45.037848], [39.000697, 45.036676], [39.000751, 45.0355], [39.000697, 45.034324], [39.000534, 45.033152], [39.000262, 45.031991], [38.999884, 45.030845], [38.999401, 45.029719], [38.998814, 45.028617], [38.998127, 45.027545], [38.997341, 45.026507], [38.996462, 45.025508], [38.995492, 45.024551], [38.994435, 45.023641], [38.993297, 45.022782], [38.992081, 45.021978], [38.990794, 45.021231], [38.98944, 45.020546], [38.988026, 45.019924], [38.986557, 45.019369], [38.98504, 45.018883], [38.983481, 45.018469], [38.981887, 45.018127], [38.980265, 45.01786], [38.978622, 45.017668], [38.976965, 45.017553], [38.9753, 45.017514], [38.973635, 45.017553], [38.971978, 45.017668], [38.970335, 45.01786], [38.968713, 45.018127], [38.967119, 45.018469], [38.96556, 45.018883], [38.964043, 45.019369], [38.962574, 45.019924], [38.96116, 45.020546], [38.959806, 45.021231], [38.958519, 45.021978], [38.957303, 45.022782], [38.956165, 45.023641], [38.955108, 45.024551], [38.954138, 45.025508], [38.953259, 45.026507], [38.952473, 45.027545], [38.951786, 45.028617], [38.951199, 45.029719], [38.950716, 45.030845], [38.950338, 45.031991], [38.950066, 45.033152], [38.949903, 45.034324], [38.949849, 45.0355], [38.949903, 45.036676], [38.950066, 45.037848], [38.950338, 45.039009], [38.950716, 45.040155], [38.951199, 45.041281], [38.951786, 45.042383], [38.952473, 45.043455], [38.953259, 45.044493], [38.954138, 45.045492], [38.955108, 45.046449], [38.956165, 45.047359], [38.957303, 45.048218], [38.958519, 45.049022], [38.959806, 45.049769], [38.96116, 45.050454], [38.962574, 45.051076], [38.964043, 45.051631], [38.96556, 45.052117], [38.967119, 45.052531], [38.968713, 45.052873], [38.970335, 45.05314], [38.971978, 45.053332], [38.973635, 45.053447], [38.9753, 45.053486]]]}}, {"type": "Feature", "properties": {"zone": "z2"}, "geometry": {"type": "Polygon", "coordinates": [[[38.9753, 45.080464], [38.979461, 45.080368], [38.983605, 45.080079], [38.987713, 45.0796], [38.991768, 45.078932], [38.995753, 45.078078], [38.999649, 45.077041], [39.003442, 45.075827], [39.007114, 45.07444], [39.01065, 45.072886], [39.014034, 45.071172], [39.017253, 45.069306], [39.020292, 45.067294], [39.023138, 45.065147], [39.02578, 45.062872], [39.028205, 45.060481], [39.030404, 45.057982], [39.032366, 45.055387], [39.034085, 45.052707], [39.035551, 45.049953], [39.03676, 45.047138], [39.037706, 45.044272], [39.038384, 45.041369], [39.038792, 45.038441], [39.038928, 45.0355], [39.038792, 45.032559], [39.038384, 45.029631], [39.037706, 45.026728], [39.03676, 45.023862], [39.035551, 45.021047], [39.034085, 45.018293], [39.032366, 45.015613], [39.030404, 45.013018], [39.028205, 45.010519], [39.02578, 45.008128], [39.023138, 45.005853], [39.020292, 45.003706], [39.017253, 45.001694], [39.014034, 44.999828], [39.01065, 44.998114], [39.007114, 44.99656], [39.003442, 44.995173], [38.999649, 44.993959], [38.995753, 44.992922], [38.991768, 44.992068], [38.987713, 44.9914], [38.983605, 44.990921], [38.979461, 44.990632], [38.9753, 44.990536], [38.971139, 44.990632], [38.966995, 44.990921], [38.962887, 44.9914], [38.958832, 44.992068], [38.954847, 44.992922], [38.950951, 44.993959], [38.947158, 44.995173], [38.943486, 44.99656], [38.93995, 44.998114], [38.936566, 44.999828], [38.933347, 45.001694], [38.930308, 45.003706], [38.927462, 45.005853], [38.92482, 45.008128], [38.922395, 45.010519], [38.920196, 45.013018], [38.918234, 45.015613], [38.916515, 45.018293], [38.915049, 45.021047], [38.91384, 45.023862], [38.912894, 45.026728], [38.912216, 45.029631], [38.911808, 45.032559], [38.911672, 45.0355], [38.911808, 45.038441], [38.912216, 45.041369], [38.912894, 45.044272], [38.91384, 45.047138], [38.915049, 45.049953], [38.916515, 45.052707], [38.918234, 45.055387], [38.920196, 45.057982], [38.922395, 45.060481], [38.92482, 45.062872], [38.927462, 45.065147], [38.930308, 45.067294], [38.933347, 45.069306], [38.936566, 45.071172], [38.93995, 45.072886], [38.943486, 45.07444], [38.947158, 45.075827], [38.950951, 45.077041], [38.954847, 45.078078], [38.958832, 45.078932], [38.962887, 45.0796], [38.966995, 45.080079], [38.971139, 45.080368], [38.9753, 45.080464]], [[38.9753, 45.053486], [38.973635, 45.053447], [38.971978, 45.053332], [38.970335, 45.05314], [38.968713, 45.052873], [38.967119, 45.052531], [38.96556, 45.052117], [38.964043, 45.051631], [38.962574, 45.051076], [38.96116, 45.050454], [38.959806, 45.049769], [38.958519, 45.049022], [38.957303, 45.048218], [38.956165, 45.047359], [38.955108, 45.046449], [38.954138, 45.045492], [38.953259, 45.044493], [38.952473, 45.043455], [38.951786, 45.042383], [38.951199, 45.041281], [38.950716, 45.040155], [38.950338, 45.039009], [38.950066, 45.037848], [38.949903, 45.036676], [38.949849, 45.0355], [38.949903, 45.034324], [38.950066, 45.033152], [38.950338, 45.031991], [38.950716, 45.030845], [38.951199, 45.029719], [38.951786, 45.028617], [38.952473, 45.027545], [38.953259, 45.026507], [38.954138, 45.025508], [38.955108, 45.024551], [38.956165, 45.023641], [38.957303, 45.022782], [38.958519, 45.021978], [38.959806, 45.021231], [38.96116, 45.020546], [38.962574, 45.019924], [38.964043, 45.019369], [38.96556, 45.018883], [38.967119, 45.018469], [38.968713, 45.018127], [38.970335, 45.01786], [38.971978, 45.017668], [38.973635, 45.017553], [38.9753, 45.017514], [38.976965, 45.017553], [38.978622, 45.017668], [38.980265, 45.01786], [38.981887, 45.018127], [38.983481, 45.018469], [38.98504, 45.018883], [38.986557, 45.019369], [38.988026, 45.019924], [38.98944, 45.020546], [38.990794, 45.021231], [38.992081, 45.021978], [38.993297, 45.022782], [38.994435, 45.023641], [38.995492, 45.024551], [38.996462, 45.025508], [38.997341, 45.026507], [38.998127, 45.027545], [38.998814, 45.028617], [38.999401, 45.029719], [38.999884, 45.030845], [39.000262, 45.031991], [39.000534, 45.033152], [39.000697, 45.034324], [39.000751, 45.0355], [39.000697, 45.036676], [39.000534, 45.037848], [39.000262, 45.039009], [38.999884, 45.040155], [38.999401, 45.041281], [38.998814, 45.042383], [38.998127, 45.043455], [38.997341, 45.044493], [38.996462, 45.045492], [38.995492, 45.046449], [38.994435, 45.047359], [38.993297, 45.048218], [38.992081, 45.049022], [38.990794, 45.049769], [38.98944, 45.050454], [38.988026, 45.051076], [38.986557, 45.051631], [38.98504, 45.052117], [38.983481, 45.052531], [38.981887, 45.052873], [38.980265, 45.05314], [38.978622, 45.053332], [38.976965, 45.053447], [38.9753, 45.053486]]]}}, {"type": "Feature", "properties": {"zone": "z3"}, "geometry": {"type": "Polygon", "coordinates": [[[38.9753, 45.116435], [38.982791, 45.116262], [38.990249, 45.115743], [38.997644, 45.11488], [39.004943, 45.113677], [39.012115, 45.11214], [39.019129, 45.110274], [39.025956, 45.108089], [39.032565, 45.105592], [39.03893, 45.102795], [39.045022, 45.09971], [39.050815, 45.09635], [39.056285, 45.09273], [39.061409, 45.088864], [39.066163, 45.08477], [39.070529, 45.080465], [39.074487, 45.075968], [39.078019, 45.071297], [39.081113, 45.066473], [39.083753, 45.061516], [39.085928, 45.056448], [39.08763, 45.05129], [39.088851, 45.046064], [39.089585, 45.040793], [39.089831, 45.0355], [39.089585, 45.030207], [39.088851, 45.024936], [39.08763, 45.01971], [39.085928, 45.014552], [39.083753, 45.009484], [39.081113, 45.004527], [39.078019, 44.999703], [39.074487, 44.995032], [39.070529, 44.990535], [39.066163, 44.98623], [39.061409, 44.982136], [39.056285, 44.97827], [39.050815, 44.97465], [39.045022, 44.97129], [39.03893, 44.968205], [39.032565, 44.965408], [39.025956, 44.962911], [39.019129, 44.960726], [39.012115, 44.95886], [39.004943, 44.957323], [38.997644, 44.95612], [38.990249, 44.955257], [38.982791, 44.954738], [38.9753, 44.954565], [38.967809, 44.954738], [38.960351, 44.955257], [38.952956, 44.95612], [38.945657, 44.957323], [38.938485, 44.95886], [38.931471, 44.960726], [38.924644, 44.962911], [38.918035, 44.965408], [38.91167, 44.968205], [38.905578, 44.97129], [38.899785, 44.97465], [38.894315, 44.97827], [38.889191, 44.982136], [38.884437, 44.98623], [38.880071, 44.990535], [38.876113, 44.995032], [38.872581, 44.999703], [38.869487, 45.004527], [38.866847, 45.009484], [38.864672, 45.014552], [38.86297, 45.01971], [38.861749, 45.024936], [38.861015, 45.030207], [38.860769, 45.0355], [38.861015, 45.040793], [38.861749, 45.046064], [38.86297, 45.05129], [38.864672, 45.056448], [38.866847, 45.061516], [38.869487, 45.066473], [38.872581, 45.071297], [38.876113, 45.075968], [38.880071, 45.080465], [38.884437, 45.08477], [38.889191, 45.088864], [38.894315, 45.09273], [38.899785, 45.09635], [38.905578, 45.09971], [38.91167, 45.102795], [38.918035, 45.105592], [38.924644, 45.108089], [38.931471, 45.110274], [38.938485, 45.11214], [38.945657, 45.113677], [38.952956, 45.11488], [38.960351, 45.115743], [38.967809, 45.116262], [38.9753, 45.116435]], [[38.9753, 45.080464], [38.971139, 45.080368], [38.966995, 45.080079], [38.962887, 45.0796], [38.958832, 45.078932], [38.954847, 45.078078], [38.950951, 45.077041], [38.947158, 45.075827], [38.943486, 45.07444], [38.93995, 45.072886], [38.936566, 45.071172], [38.933347, 45.069306], [38.930308, 45.067294], [38.927462, 45.065147], [38.92482, 45.062872], [38.922395, 45.060481], [38.920196, 45.057982], [38.918234, 45.055387], [38.916515, 45.052707], [38.915049, 45.049953], [38.91384, 45.047138], [38.912894, 45.044272], [38.912216, 45.041369], [38.911808, 45.038441], [38.911672, 45.0355], [38.911808, 45.032559], [38.912216, 45.029631], [38.912894, 45.026728], [38.91384, 45.023862], [38.915049, 45.021047], [38.916515, 45.018293], [38.918234, 45.015613], [38.920196, 45.013018], [38.922395, 45.010519], [38.92482, 45.008128], [38.927462, 45.005853], [38.930308, 45.003706], [38.933347, 45.001694], [38.936566, 44.999828], [38.93995, 44.998114], [38.943486, 44.99656], [38.947158, 44.995173], [38.950951, 44.993959], [38.954847, 44.992922], [38.958832, 44.992068], [38.962887, 44.9914], [38.966995, 44.990921], [38.971139, 44.990632], [38.9753, 44.990536], [38.979461, 44.990632], [38.983605, 44.990921], [38.987713, 44.9914], [38.991768, 44.992068], [38.995753, 44.992922], [38.999649, 44.993959], [39.003442, 44.995173], [39.007114, 44.99656], [39.01065, 44.998114], [39.014034, 44.999828], [39.017253, 45.001694], [39.020292, 45.003706], [39.023138, 45.005853], [39.02578, 45.008128], [39.028205, 45.010519], [39.030404, 45.013018], [39.032366, 45.015613], [39.034085, 45.018293], [39.035551, 45.021047], [39.03676, 45.023862], [39.037706, 45.026728], [39.038384, 45.029631], [39.038792, 45.032559], [39.038928, 45.0355], [39.038792, 45.038441], [39.038384, 45.041369], [39.037706, 45.044272], [39.03676, 45.047138], [39.035551, 45.049953], [39.034085, 45.052707], [39.032366, 45.055387], [39.030404, 45.057982], [39.028205, 45.060481], [39.02578, 45.062872], [39.023138, 45.065147], [39.020292, 45.067294], [39.017253, 45.069306], [39.014034, 45.071172], [39.01065, 45.072886], [39.007114, 45.07444], [39.003442, 45.075827], [38.999649, 45.077041], [38.995753, 45.078078], [38.991768, 45.078932], [38.987713, 45.0796], [38.983605, 45.080079], [38.979461, 45.080368], [38.9753, 45.080464]]]}}, {"type": "Feature", "properties": {"zone": "z4"}, "geometry": {"type": "Polygon", "coordinates": [[[38.9753, 45.170392], [38.987784, 45.170103], [39.000215, 45.169238], [39.01254, 45.1678], [39.024705, 45.165796], [39.036658, 45.163233], [39.048348, 45.160124], [39.059726, 45.156481], [39.070742, 45.15232], [39.08135, 45.147659], [39.091503, 45.142517], [39.101159, 45.136917], [39.110276, 45.130883], [39.118815, 45.124441], [39.126739, 45.117617], [39.134015, 45.110442], [39.140611, 45.102946], [39.146499, 45.095161], [39.151654, 45.087121], [39.156054, 45.07886], [39.15968, 45.070413], [39.162517, 45.061816], [39.164551, 45.053107], [39.165776, 45.044322], [39.166185, 45.0355], [39.165776, 45.026678], [39.164551, 45.017893], [39.162517, 45.009184], [39.15968, 45.000587], [39.156054, 44.99214], [39.151654, 44.983879], [39.146499, 44.975839], [39.140611, 44.968054], [39.134015, 44.960558], [39.126739, 44.953383], [39.118815, 44.946559], [39.110276, 44.940117], [39.101159, 44.934083], [39.091503, 44.928483], [39.08135, 44.923341], [39.070742, 44.91868], [39.059726, 44.914519], [39.048348, 44.910876], [39.036658, 44.907767], [39.024705, 44.905204], [39.01254, 44.9032], [39.000215, 44.901762], [38.987784, 44.900897], [38.9753, 44.900608], [38.962816, 44.900897], [38.950385, 44.901762], [38.93806, 44.9032], [38.925895, 44.905204], [38.913942, 44.907767], [38.902252, 44.910876], [38.890874, 44.914519], [38.879858, 44.91868], [38.86925, 44.923341], [38.859097, 44.928483], [38.849441, 44.934083], [38.840324, 44.940117], [38.831785, 44.946559], [38.823861, 44.953383], [38.816585, 44.960558], [38.809989, 44.968054], [38.804101, 44.975839], [38.798946, 44.983879], [38.794546, 44.99214], [38.79092, 45.000587], [38.788083, 45.009184], [38.786049, 45.017893], [38.784824, 45.026678], [38.784415, 45.0355], [38.784824, 45.044322], [38.786049, 45.053107], [38.788083, 45.061816], [38.79092, 45.070413], [38.794546, 45.07886], [38.798946, 45.087121], [38.804101, 45.095161], [38.809989, 45.102946], [38.816585, 45.110442], [38.823861, 45.117617], [38.831785, 45.124441], [38.840324, 45.130883], [38.849441, 45.136917], [38.859097, 45.142517], [38.86925, 45.147659], [38.879858, 45.15232], [38.890874, 45.156481], [38.902252, 45.160124], [38.913942, 45.163233], [38.925895, 45.165796], [38.93806, 45.1678], [38.950385, 45.169238], [38.962816, 45.170103], [38.9753, 45.170392]], [[38.9753, 45.116435], [38.967809, 45.116262], [38.960351, 45.115743], [38.952956, 45.11488], [38.945657, 45.113677], [38.938485, 45.11214], [38.931471, 45.110274], [38.924644, 45.108089], [38.918035, 45.105592], [38.91167, 45.102795], [38.905578, 45.09971], [38.899785, 45.09635], [38.894315, 45.09273], [38.889191, 45.088864], [38.884437, 45.08477], [38.880071, 45.080465], [38.876113, 45.075968], [38.872581, 45.071297], [38.869487, 45.066473], [38.866847, 45.061516], [38.864672, 45.056448], [38.86297, 45.05129], [38.861749, 45.046064], [38.861015, 45.040793], [38.860769, 45.0355], [38.861015, 45.030207], [38.861749, 45.024936], [38.86297, 45.01971], [38.864672, 45.014552], [38.866847, 45.009484], [38.869487, 45.004527], [38.872581, 44.999703], [38.876113, 44.995032], [38.880071, 44.990535], [38.884437, 44.98623], [38.889191, 44.982136], [38.894315, 44.97827], [38.899785, 44.97465], [38.905578, 44.97129], [38.91167, 44.968205], [38.918035, 44.965408], [38.924644, 44.962911], [38.931471, 44.960726], [38.938485, 44.95886], [38.945657, 44.957323], [38.952956, 44.95612], [38.960351, 44.955257], [38.967809, 44.954738], [38.9753, 44.954565], [38.982791, 44.954738], [38.990249, 44.955257], [38.997644, 44.95612], [39.004943, 44.957323], [39.012115, 44.95886], [39.019129, 44.960726], [39.025956, 44.962911], [39.032565, 44.965408], [39.03893, 44.968205], [39.045022, 44.97129], [39.050815, 44.97465], [39.056285, 44.97827], [39.061409, 44.982136], [39.066163, 44.98623], [39.070529, 44.990535], [39.074487, 44.995032], [39.078019, 44.999703], [39.081113, 45.004527], [39.083753, 45.009484], [39.085928, 45.014552], [39.08763, 45.01971], [39.088851, 45.024936], [39.089585, 45.030207], [39.089831, 45.0355], [39.089585, 45.040793], [39.088851, 45.046064], [39.08763, 45.05129], [39.085928, 45.056448], [39.083753, 45.061516], [39.081113, 45.066473], [39.078019, 45.071297], [39.074487, 45.075968], [39.070529, 45.080465], [39.066163, 45.08477], [39.061409, 45.088864], [39.056285, 45.09273], [39.050815, 45.09635], [39.045022, 45.09971], [39.03893, 45.102795], [39.032565, 45.105592], [39.025956, 45.108089], [39.019129, 45.110274], [39.012115, 45.11214], [39.004943, 45.113677], [38.997644, 45.11488], [38.990249, 45.115743], [38.982791, 45.116262], [38.9753, 45.116435]]]}}]}